[{"OBJECT_NAME":"STARLINK-4346","OBJECT_ID":"2022-077AG","EPOCH":"2026-03-09T23:20:05.829216","MEAN_MOTION":15.20483722,"ECCENTRICITY":0.00045407,"INCLINATION":97.6378,"RA_OF_ASC_NODE":257.0949,"ARG_OF_PERICENTER":212.0804,"MEAN_ANOMALY":148.0155,"EPHEMERIS_TYPE":0,"CLASSIFICATION_TYPE":"U","NORAD_CAT_ID":53073,"ELEMENT_SET_NO":999,"REV_AT_EPOCH":20134,"BSTAR":0.00030178555,"MEAN_MOTION_DOT":6.523e-5,"MEAN_MOTION_DDOT":0},{"OBJECT_NAME":"PIAST-S2","OBJECT_ID":"2025-276CV","EPOCH":"2026-03-09T16:59:55.512096","MEAN_MOTION":15.19329841,"ECCENTRICITY":5.362e-5,"INCLINATION":97.4284,"RA_OF_ASC_NODE":144.0754,"ARG_OF_PERICENTER":4.7699,"MEAN_ANOMALY":355.3541,"EPHEMERIS_TYPE":0,"CLASSIFICATION_TYPE":"U","NORAD_CAT_ID":66757,"ELEMENT_SET_NO":999,"REV_AT_EPOCH":1532,"BSTAR":0.00034653678,"MEAN_MOTION_DOT":7.255e-5,"MEAN_MOTION_DDOT":0}]
